*******************************************************************************
 Revised: Aug 08, 2019              Titan / (Saturn)                        606
                         http://ssd.jpl.nasa.gov/?sat_phys_par
                           http://ssd.jpl.nasa.gov/?sat_elem

 SATELLITE PHYSICAL PROPERTIES:
  Mean Radius (km)       = 2575.5   +-  2.0  Density (g/cm^3) =  1.880 +- 0.004
  Mass (10^19 kg)        = 13455.3           Geometric Albedo =  0.2 
  GM (km^3/s^2)          = 8978.14  +-  0.06  V(1,0)          = -1.2 

 SATELLITE ORBITAL DATA:
  Semi-major axis, a (km)= 1221.87 (10^3)  Orbital period     = 15.945421 d
  Eccentricity, e        = 0.0288          Rotational period  = 
  Inclination, i  (deg)  = 0.28
*******************************************************************************
 

 

*******************************************************************************
Ephemeris / WWW_USER Thu Dec 26 16:02:32 2019 Pasadena, USA      / Horizons    
*******************************************************************************
Target body name: Titan (606)                     {source: sat425l_merged_DE438}
Center body name: Sun (10)                        {source: sat425l_merged_DE438}
Center-site name: BODY CENTER
*******************************************************************************
Start time      : A.D. 2019-Dec-26 00:00:00.0000 TDB
Stop  time      : A.D. 2020-Jan-25 00:00:00.0000 TDB
Step-size       : 1440 minutes
*******************************************************************************
Center geodetic : 0.00000000,0.00000000,0.0000000 {E-lon(deg),Lat(deg),Alt(km)}
Center cylindric: 0.00000000,0.00000000,0.0000000 {E-lon(deg),Dxy(km),Dz(km)}
Center radii    : 696000.0 x 696000.0 x 696000.0 k{Equator, meridian, pole}    
Keplerian GM    : 1.3271244902007632E+11 km^3/s^2
Output units    : KM-S, deg                                                    
Output type     : GEOMETRIC osculating elements
Output format   : 10
Reference frame : ICRF/J2000.0                                                 
Coordinate systm: Ecliptic and Mean Equinox of Reference Epoch                 
*******************************************************************************
            JDTDB,            Calendar Date (TDB),                     EC,                     QR,                     IN,                     OM,                      W,                     Tp,                      N,                     MA,                     TA,                      A,                     AD,                     PR,
**************************************************************************************************************************************************************************************************************************************************************************************************************************************************
$$SOE
2458843.500000000, A.D. 2019-Dec-26 00:00:00.0000,  5.598478767125952E-01,  6.672573052538512E+08,  1.614353221086414E+01,  1.122725247686835E+02,  3.030187886611532E+02,  1.609479464692997E+08,  3.536247554992212E-07,  3.030848217816921E+02,  2.367981985284775E+02,  1.515969752162605E+09,  2.364682199071358E+09,  1.018028275457635E+09,
2458844.500000000, A.D. 2019-Dec-27 00:00:00.0000,  6.851598292564669E-01,  3.385651097821690E+08,  1.271132473047734E+01,  1.123184419112544E+02,  3.345611428290839E+02,  1.574322644205601E+08,  5.919027695776654E-07,  2.668154066685871E+02,  2.052337188169863E+02,  1.075355501753815E+09,  1.812145893725462E+09,  6.082080005418242E+08,
2458845.500000000, A.D. 2019-Dec-28 00:00:00.0000,  7.952916391365399E-01,  1.827609578695790E+08,  3.488505232140759E+00,  1.128332897000906E+02,  3.485336347281491E+02,  1.600364465298006E+08,  7.824501840854561E-07,  2.347794529523752E+02,  1.907664929732080E+02,  8.927869731294453E+08,  1.602812988389312E+09,  4.600931884510646E+08,
2458846.500000000, A.D. 2019-Dec-29 00:00:00.0000,  8.264486187644652E-01,  1.438320365035822E+08,  1.009175622521096E+01,  2.919047610789337E+02,  1.767047135808277E+02,  1.819001591273714E+08,  8.748571214100251E-07,  2.008633504018023E+02,  1.835424860593632E+02,  8.287576594298661E+08,  1.513683282356150E+09,  4.114957644966993E+08,
2458847.500000000, A.D. 2019-Dec-30 00:00:00.0000,  7.829172466537703E-01,  1.834527084139434E+08,  1.946115509621482E+01,  2.920283314935086E+02,  1.829909992435244E+02, -1.947672135517752E+08,  8.496308129706016E-07,  1.654802259900135E+02,  1.771498727727175E+02,  8.450819127088861E+08,  1.506711117003829E+09,  4.237134464807323E+08,
2458848.500000000, A.D. 2019-Dec-31 00:00:00.0000,  6.792493933756161E-01,  3.030877588600218E+08,  2.093085339326297E+01,  2.920385607154768E+02,  1.935571402420821E+02, -1.814194183346587E+08,  7.185832657565099E-07,  1.303649580985655E+02,  1.665902802955124E+02,  9.449327689501574E+08,  1.586777779040293E+09,  5.009857829363718E+08,
2458849.500000000, A.D. 2020-Jan-01 00:00:00.0000,  5.444133845290879E-01,  5.356493563955304E+08,  1.762091345496679E+01,  2.920082840046875E+02,  2.146983931081464E+02, -1.807901833139513E+08,  5.177427402193857E-07,  9.360280491373022E+01,  1.454980878045656E+02,  1.175735498379078E+09,  1.815821640362626E+09,  6.953260220461138E+08,
2458850.500000000, A.D. 2020-Jan-02 00:00:00.0000,  4.835888846469653E-01,  8.791836431312639E+08,  1.261864234906115E+01,  2.919247628727494E+02,  2.545966006907604E+02, -1.647669185577683E+08,  2.971340599659827E-07,  4.895786345915412E+01,  1.057065250646596E+02,  1.702487837679919E+09,  2.525792032228575E+09,  1.211574331267222E+09,
2458851.500000000, A.D. 2020-Jan-03 00:00:00.0000,  6.451718765004267E-01,  1.172877379756701E+09,  7.441583883757704E+00,  2.917028426644146E+02,  2.968015692436908E+02, -1.139015117445018E+08,  1.098314203913954E-07,  1.250996481962583E+01,  6.375236070862450E+01,  3.305480321539711E+09,  5.438083263322721E+09,  3.277750562790716E+09,
2458852.500000000, A.D. 2020-Jan-04 00:00:00.0000,  9.537715408993565E-01,  1.346038695242677E+09,  2.630387078985574E+00,  2.906568868396344E+02,  3.236103031285136E+02, -6.934545175250438E+07,  4.201034743317955E-09,  2.913226521033435E-01,  3.802463351028677E+01,  2.911710062219935E+10,  5.688816254915602E+10,  8.569317370502724E+10,
2458853.500000000, A.D. 2020-Jan-05 00:00:00.0000,  1.256144070480655E+00,  1.446416503597142E+09,  1.702779815390224E+00,  1.148678432288853E+02,  1.564680653777020E+02, -3.778408436975593E+07,  4.918864641014832E-08,  1.858547965995136E+00,  2.099654141515455E+01, -5.646886538825346E+09,  9.999999000000000E+99,  9.999999000000000E+99,
2458854.500000000, A.D. 2020-Jan-06 00:00:00.0000,  1.441413658197864E+00,  1.495647914318793E+09,  5.575487499298569E+00,  1.131210558926222E+02,  1.723337896945115E+02, -1.231242727769239E+07,  1.058286022322357E-07,  1.303006968884236E+00,  6.922278504501952E+00, -3.388313629498893E+09,  9.999999000000000E+99,  9.999999000000000E+99,
2458855.500000000, A.D. 2020-Jan-07 00:00:00.0000,  1.440191037468305E+00,  1.495890498158018E+09,  9.033928749231874E+00,  1.128443838042720E+02,  1.863721656807548E+02,  1.208715351035164E+07,  1.053635882724097E-07, -1.273545865850102E+00,  3.532069979890613E+02, -3.398275682216111E+09,  9.999999000000000E+99,  9.999999000000000E+99,
2458856.500000000, A.D. 2020-Jan-08 00:00:00.0000,  1.242684862188159E+00,  1.440382614633905E+09,  1.207005741655989E+01,  1.127436647503242E+02,  2.019002104389972E+02,  3.988657824254635E+07,  4.564841358362684E-08, -1.820759020051448E+00,  3.378251096955443E+02, -5.935197612437578E+09,  9.999999000000000E+99,  9.999999000000000E+99,
2458857.500000000, A.D. 2020-Jan-09 00:00:00.0000,  9.167372688131245E-01,  1.309828840225168E+09,  1.456221309257379E+01,  1.126997874727173E+02,  2.226751020409516E+02,  7.722301795638639E+07,  1.057870776583327E-08,  3.591830802602437E+02,  3.171358690273938E+02,  1.573127402325261E+10,  3.015271920628006E+10,  3.403062150584356E+10,
2458858.500000000, A.D. 2020-Jan-10 00:00:00.0000,  6.200593276397423E-01,  1.053131986417459E+09,  1.615225831402654E+01,  1.126825894174938E+02,  2.571437625394501E+02,  1.286769882108826E+08,  1.430302636277206E-07,  3.415952964533764E+02,  2.827204526857200E+02,  2.771832717658837E+09,  4.490533448900214E+09,  2.516949845922178E+09,
2458859.500000000, A.D. 2020-Jan-11 00:00:00.0000,  5.630919765639484E-01,  6.525444278857265E+08,  1.598880950196713E+01,  1.126834631004593E+02,  3.045646993430802E+02,  1.610162327121815E+08,  3.616166063621708E-07,  3.017738563573994E+02,  2.353279747756369E+02,  1.493551028781316E+09,  2.334557629676906E+09,  9.955295018709630E+08,
2458860.500000000, A.D. 2020-Jan-12 00:00:00.0000,  6.901160355617763E-01,  3.305637899812439E+08,  1.231265860959248E+01,  1.127115253935797E+02,  3.353138877077298E+02,  1.571121876518120E+08,  5.990929384303037E-07,  2.658751978364627E+02,  2.045736995811242E+02,  1.066734093777682E+09,  1.802904397574120E+09,  6.009084349136944E+08,
2458861.500000000, A.D. 2020-Jan-13 00:00:00.0000,  7.973159536770107E-01,  1.802864718643211E+08,  2.803394370575457E+00,  1.130589697124015E+02,  3.490619601628710E+02,  1.603357718821277E+08,  7.867977388799681E-07,  2.338481772215676E+02,  1.904965038469952E+02,  8.894951286744269E+08,  1.598703785484533E+09,  4.575508827878326E+08,
2458862.500000000, A.D. 2020-Jan-14 00:00:00.0000,  8.252602872675397E-01,  1.447628817917797E+08,  1.076284574285036E+01,  2.925130145230672E+02,  1.767371023967563E+02,  1.829557859687335E+08,  8.753466222919267E-07,  1.998502707235045E+02,  1.833833552395350E+02,  8.284486653209884E+08,  1.512134448850197E+09,  4.112656527506890E+08,
